satname,norad_id,inclination_deg,eccentricity,mean_motion_rev_per_day,perigee_km,apogee_km,l1,l2
STARLINK-1284,45390,53.0565,0.0001385,15.06369336,546.3463664842648,548.264714067921,1 45390U 20019AG  26001.54347328 -.00001794  00000+0 -10166-3 0  9997,2 45390  53.0565  88.0542 0001385  82.3338 277.7808 15.06369336319888
STARLINK-1297,45395,53.0551,0.0001454,15.06392974,546.2261428887105,548.2400405113776,1 45395U 20019AM  26001.51395117 -.00004516  00000+0 -28450-3 0  9998,2 45395  53.0551  88.1827 0001454  99.1883 260.9270 15.06392974319064
STARLINK-1307,45397,53.0563,0.0001468,15.06373683,546.2755639181596,548.3088699362488,1 45397U 20019AP  26001.77198791  .00003290  00000+0  23982-3 0  9998,2 45397  53.0563  87.0234 0001468  99.3580 260.7575 15.06373683319747
STARLINK-1255,45399,53.0482,0.0002581,15.4084536,441.8523874118291,445.3737748036974,1 45399U 20019AR  26001.45013691  .00084002  00000+0  20041-2 0  9992,2 45399  53.0482  63.4132 0002581  44.5314 315.5897 15.40845360320032
STARLINK-1260,45404,53.0571,0.0001411,15.06414789,546.1890718680461,548.1433924401608,1 45404U 20019AW  26001.57384604  .00003896  00000+0  28020-3 0  9995,2 45404  53.0571  77.9116 0001411  73.2517 286.8627 15.06414789319741
STARLINK-1263,45405,53.0553,0.0001804,15.06378148,546.0291870186547,548.5278769425931,1 45405U 20019AX  26001.49276882  .00021920  00000+0  14868-2 0  9997,2 45405  53.0553  78.2791 0001804  80.7704 279.3489 15.06378148319732
STARLINK-1265,45406,53.056,0.0001427,15.06405684,546.2058925984002,548.1823821050002,1 45406U 20019AY  26001.43378864  .00009892  00000+0  68193-3 0  9990,2 45406  53.0560  78.5442 0001427  68.0726 292.0414 15.06405684319726
STARLINK-1278,45408,53.0495,0.0003711,15.43217757,434.0909234322644,439.14883598838423,1 45408U 20019BA  26001.91668980  .00074138  00000+0  16372-2 0  9992,2 45408  53.0495  90.3655 0003711 248.6080 337.2923 15.43217757  5878
STARLINK-1296,45412,53.0568,0.0001487,15.06413189,546.1413425279643,548.2009291675658,1 45412U 20019BE  26001.50381282  .00014456  00000+0  98707-3 0  9999,2 45412  53.0568  78.2285 0001487  76.5322 283.5833 15.06413189319735
STARLINK-1298,45413,53.0422,0.0004948,15.66833351,364.6332363335905,371.30918501887663,1 45413U 20019BF  26001.91668980  .00157592  00000+0  14401-2 0  9995,2 45413  53.0422  29.1962 0004948  75.2568  47.4675 15.66833351  5999
STARLINK-1309,45414,53.0559,0.0001399,15.06414107,546.1994721378678,548.1371725670624,1 45414U 20019BG  26001.51856517  .00011335  00000+0  77836-3 0  9993,2 45414  53.0559  78.1611 0001399  83.7088 276.4060 15.06414107319723
STARLINK-1316,45415,53.0563,0.000188,15.0638434,545.9575794464654,548.5615285507693,1 45415U 20019BH  26001.47804488 -.00003383  00000+0 -20840-3 0  9998,2 45415  53.0563  78.3426 0001880  58.9884 301.1289 15.06384340319755
STARLINK-1318,45416,53.045,0.0004341,15.73964402,344.6600778537004,350.49934510260573,1 45416U 20019BJ  26001.91668980  .00230012  00000+0  15466-2 0  9999,2 45416  53.0450  17.4998 0004341  53.1678 305.1534 15.73964402  5747
STARLINK-1286,45417,53.0524,0.0001793,15.43851773,433.5324494500328,435.9755521629222,1 45417U 20019BK  26001.51666010  .00038957  00000+0  85041-3 0  9999,2 45417  53.0524  91.9821 0001793 256.5487 103.5318 15.43851773319827
STARLINK-1308,45419,53.0556,0.0001298,15.0640051,546.3110848222395,548.1089049021066,1 45419U 20019BM  26001.57845707  .00003587  00000+0  25955-3 0  9998,2 45419  53.0556 107.8937 0001298  70.9291 289.1839 15.06400510319355
STARLINK-1329,45531,53.0546,0.0003048,15.43535347,433.60821482344727,437.7619207559719,1 45531U 20025A   26001.91668980  .00143118  00000+0  30908-2 0  9992,2 45531  53.0546  41.4629 0003048  31.0726 170.1010 15.43535347  5783
STARLINK-1338,45532,53.067,9.62e-05,15.40275073,444.64039865236646,445.9532273179839,1 45532U 20025B   26001.91668980  .01070307  00000+0  24013-1 0  9992,2 45532  53.0670  44.1864 0000962  85.0922 104.4592 15.40275073  5781
STARLINK-1350,45535,53.0754,0.0002338,15.34192172,461.7214856662149,464.92055143568814,1 45535U 20025E   26001.27901721  .00019405  00000+0  58777-3 0  9994,2 45535  53.0754 349.2726 0002338  67.4623 292.6625 15.34192172315809
STARLINK-1362,45538,53.0552,0.0001542,15.06415167,546.0971920779848,548.2329552375022,1 45538U 20025H   26001.39135054  .00014277  00000+0  97499-3 0  9994,2 45538  53.0552  48.4524 0001542  89.3404 270.7761 15.06415167314952
STARLINK-1368,45540,53.0553,0.0001394,15.06417025,546.1939929414848,548.1247655720217,1 45540U 20025K   26001.52868854  .00002780  00000+0  20537-3 0  9998,2 45540  53.0553  48.1153 0001394  95.1600 264.9548 15.06417025314963
STARLINK-1371,45542,53.0541,0.0001521,15.24496789,491.25190221676075,493.34188820768486,1 45542U 20025M   26001.91668980  .01725510  00000+0  63390-1 0  9997,2 45542  53.0541  45.7551 0001521  97.2022 326.9863 15.24496789  5735
STARLINK-1372,45543,53.0555,0.0001397,15.0640568,546.226680849446,548.1616183726483,1 45543U 20025N   26001.33703430  .00010091  00000+0  69525-3 0  9992,2 45543  53.0555  48.9782 0001397  81.4661 278.6486 15.06405680314037
STARLINK-1373,45544,53.0558,0.0001371,15.20537435,503.27484950206144,505.1619913583427,1 45544U 20025P   26001.91668980  .01075821  00000+0  44950-1 0  9993,2 45544  53.0558  46.0153 0001371  77.0713 272.6981 15.20537435  5786
STARLINK-1294,45551,53.0425,0.0003116,15.72933363,348.4218259926247,352.6151240846684,1 45551U 20025W   26001.91668980  .00107246  00000+0  76725-3 0  9994,2 45551  53.0425 312.9839 0003116 133.9763 219.0137 15.72933363  6000
STARLINK-1325,45554,53.047,0.0009838,15.86470701,305.6048592707375,318.76874037927337,1 45554U 20025Z   26001.91668980  .00307628  00000+0  11532-2 0  9997,2 45554  53.0470 302.4720 0009838 102.9605 340.2634 15.86470701  5942
STARLINK-1327,45555,53.0532,0.0001609,15.28731834,478.49884617344924,480.7056666661656,1 45555U 20025AA  26001.91668980  .01721687  00000+0  54825-1 0  9995,2 45555  53.0532  25.4522 0001609 106.8003 323.5373 15.28731834  5786
STARLINK-1356,45564,53.0556,0.0001142,15.06401754,546.4153079947109,547.9970563775223,1 45564U 20025AK  26001.33150218  .00004391  00000+0  31347-3 0  9992,2 45564  53.0556  29.0003 0001142 106.3028 253.8086 15.06401754315219
STARLINK-1357,45565,53.0589,0.0002352,15.42989406,435.6892298600824,438.89520776461177,1 45565U 20025AL  26001.91668980  .00172470  00000+0  37775-2 0  9991,2 45565  53.0589 357.8138 0002352  47.7554 244.8814 15.42989406  5729
STARLINK-1361,45567,53.0572,0.0001202,15.06385954,546.4221751685945,548.0870393109744,1 45567U 20025AN  26001.28358704 -.00001358  00000+0 -72334-4 0  9993,2 45567  53.0572  29.2162 0001202  92.3992 267.7134 15.06385954315210
STARLINK-1363,45568,53.0509,0.0008203,15.53139833,401.9989897757723,413.13161297140596,1 45568U 20025AP  26001.30225425  .00048325  00000+0  75955-3 0  9994,2 45568  53.0509   8.9316 0008203 353.0136   7.0758 15.53139833315493
STARLINK-1366,45569,53.05,0.0009284,15.51006162,407.4815062814059,420.09275100346986,1 45569U 20025AQ  26001.91668980  .00201791  00000+0  33325-2 0  9991,2 45569  53.0500   6.4909 0009284  12.4732 222.1182 15.51006162  5891
STARLINK-1376,45570,53.0555,0.0001554,15.06396438,546.146274114356,548.298675839178,1 45570U 20025AR  26001.47894384 -.00000282  00000+0 -16345-7 0  9995,2 45570  53.0555  28.3399 0001554  94.0091 266.1075 15.06396438315234
STARLINK-1320,45572,53.0556,0.0006626,15.54078246,400.3389825767881,409.32777492270816,1 45572U 20025AT  26001.91668980  .00146319  00000+0  21823-2 0  9999,2 45572  53.0556 311.5971 0006626 111.0093 262.1634 15.54078246  5901
STARLINK-1321,45573,53.0585,0.0001335,15.30029518,474.8091547432605,476.6391356690301,1 45573U 20025AU  26001.91668980  .01102757  00000+0  34155-1 0  9990,2 45573  53.0585  15.2950 0001335  86.1297  40.5908 15.30029518  5734
STARLINK-1328,45576,53.0454,0.0001772,16.01362874,269.46546893073446,271.8217967870196,1 45576U 20025AX  26001.17998100  .00598832  17343-3  10602-2 0  9997,2 45576  53.0454 322.4553 0001772 141.9197 218.1959 16.01362874316141
STARLINK-1331,45578,53.0566,0.0001434,15.06389231,546.2514638526682,548.2376632850992,1 45578U 20025AZ  26001.31031265  .00001654  00000+0  12997-3 0  9994,2 45578  53.0566  19.0982 0001434  69.0094 291.1048 15.06389231315366
STARLINK-1333,45580,53.056,0.0001381,15.06402549,546.2473560744447,548.1601351883883,1 45580U 20025BB  26001.78119186  .00000896  00000+0  79024-4 0  9999,2 45580  53.0560  26.9803 0001381  95.2365 264.8782 15.06402549315286
STARLINK-1335,45581,53.0557,0.0001162,15.06404628,546.3926499669069,548.0020976753831,1 45581U 20025BC  26001.45405353 -.00000019  00000+0  17598-4 0  9994,2 45581  53.0557  18.4519 0001162 100.1143 259.9977 15.06404628315371
STARLINK-1337,45582,53.0571,0.000155,15.06380802,546.1969595215123,548.3438358147896,1 45582U 20025BD  26001.47618860  .00000503  00000+0  52656-4 0  9997,2 45582  53.0571  18.3548 0001550  99.7676 260.3488 15.06380802315374
STARLINK-1347,45586,53.0517,0.0002942,15.41703973,439.07383162018505,443.0862589296248,1 45586U 20025BH  26001.91668980  .00167921  00000+0  38418-2 0  9994,2 45586  53.0517 348.7198 0002942  62.1617   4.0609 15.41703973  5870
STARLINK-1364,45589,53.0545,0.0001342,15.06383895,546.3315294829108,548.1903062840711,1 45589U 20025BL  26001.34717810 -.00001603  00000+0 -88818-4 0  9998,2 45589  53.0545  18.9320 0001342  94.5840 265.5302 15.06383895315356
STARLINK-1365,45590,53.056,0.0001023,15.06387702,546.5407827801118,547.957716806819,1 45590U 20025BM  26001.49553546 -.00000206  00000+0  50587-5 0  9990,2 45590  53.0560  48.2623 0001023  79.1419 280.9685 15.06387702314977
STARLINK-1443,45660,53.0544,0.0001425,15.06404375,546.2112889670807,548.1850094846095,1 45660U 20035D   26001.28174392  .00001313  00000+0  10700-3 0  9994,2 45660  53.0544   9.2278 0001425  82.1177 277.9973 15.06404375308572
